ONEWEB-0018             
1 45434U 20020L   26116.48869450 -.00000496  00000+0 -14360-2 0  9990
2 45434  87.8925  31.3447 0002238  76.4537 283.6840 13.11417339295853
ONEWEB-0083             
1 45435U 20020M   26116.32663962  .00006970  00000+0  19594-1 0  9998
2 45435  87.8932  31.3669 0001893  76.3949 283.7390 13.11490584295876
ONEWEB-0095             
1 45436U 20020N   26116.47018587 -.00000342  00000+0 -10015-2 0  9991
2 45436  87.8930  31.3469 0001107  88.7509 271.3745 13.11417697295893
ONEWEB-0092             
1 45437U 20020P   26116.51838155  .00004200  00000+0  11813-1 0  9999
2 45437  87.8930  31.3376 0001705  94.9684 265.1639 13.11397760296014
ONEWEB-0085             
1 45438U 20020Q   26116.47851841 -.00000506  00000+0 -14627-2 0  9996
2 45438  87.8924  31.3478 0001815  79.3835 280.7497 13.11416837295895
ONEWEB-0096             
1 45439U 20020R   26116.32761543 -.00000463  00000+0 -13414-2 0  9995
2 45439  87.8933  31.3687 0001890  81.0029 279.1313 13.11418287295863
ONEWEB-0037             
1 45440U 20020S   26116.30415062  .00000210  00000+0  55362-3 0  9994
2 45440  87.8942  31.3512 0001755  80.3721 279.7605 13.11907539295899
ONEWEB-0042             
1 45441U 20020T   26116.46990277 -.00000273  00000+0 -80749-3 0  9996
2 45441  87.8931  31.3376 0001878  81.4141 278.7200 13.11415945295884
ONEWEB-0098             
1 45442U 20020U   26116.46579694 -.00000113  00000+0 -35411-3 0  9992
2 45442  87.8928  31.3490 0001842  76.4801 283.6532 13.11414209295869
ONEWEB-0055             
1 45443U 20020V   26116.52467968  .00032169  00000+0  90017-1 0  9995
2 45443  87.8929  31.3370 0002238  76.1258 284.0119 13.11719760295845
ONEWEB-0093             
1 45444U 20020W   26116.50070609 -.00000009  00000+0 -61831-4 0  9991
2 45444  87.8935  31.3323 0002088  88.8393 271.2974 13.11419758295902
ONEWEB-0029             
1 45445U 20020X   26116.51668236  .00000534  00000+0  14698-2 0  9990
2 45445  87.8922  31.3386 0001979  80.3090 279.8261 13.11417642295887
ONEWEB-0068             
1 45446U 20020Y   26116.50043318  .00000013  00000+0  14900-6 0  9990
2 45446  87.8936  31.3356 0002024  81.6244 278.5113 13.11419532295823
ONEWEB-0046             
1 45447U 20020Z   26116.49208448 -.00000306  00000+0 -89792-3 0  9991
2 45447  87.8937  31.3444 0001837  86.8916 273.2422 13.11419047295834
ONEWEB-0063             
1 45448U 20020AA  26116.52092183  .00000560  00000+0  15455-2 0  9997
2 45448  87.8932  31.3363 0001675  84.9625 275.1694 13.11416542295925
ONEWEB-0019             
1 45449U 20020AB  26116.48346523 -.00000492  00000+0 -14230-2 0  9999
2 45449  87.8927  31.3332 0001842  73.4935 286.6395 13.11417924295761
