[{"OBJECT_NAME":"ONEWEB-0018","OBJECT_ID":"2020-020L","EPOCH":"2026-04-26T11:43:43.204800","MEAN_MOTION":13.11417339,"ECCENTRICITY":0.0002238,"INCLINATION":87.8925,"RA_OF_ASC_NODE":31.3447,"ARG_OF_PERICENTER":76.4537,"MEAN_ANOMALY":283.684,"EPHEMERIS_TYPE":0,"CLASSIFICATION_TYPE":"U","NORAD_CAT_ID":45434,"ELEMENT_SET_NO":999,"REV_AT_EPOCH":29585,"BSTAR":-0.001436,"MEAN_MOTION_DOT":-4.96e-06,"MEAN_MOTION_DDOT":0.0},{"OBJECT_NAME":"ONEWEB-0083","OBJECT_ID":"2020-020M","EPOCH":"2026-04-26T07:50:21.663168","MEAN_MOTION":13.11490584,"ECCENTRICITY":0.0001893,"INCLINATION":87.8932,"RA_OF_ASC_NODE":31.3669,"ARG_OF_PERICENTER":76.3949,"MEAN_ANOMALY":283.739,"EPHEMERIS_TYPE":0,"CLASSIFICATION_TYPE":"U","NORAD_CAT_ID":45435,"ELEMENT_SET_NO":999,"REV_AT_EPOCH":29587,"BSTAR":0.019594,"MEAN_MOTION_DOT":6.97e-05,"MEAN_MOTION_DDOT":0.0},{"OBJECT_NAME":"ONEWEB-0095","OBJECT_ID":"2020-020N","EPOCH":"2026-04-26T11:17:04.059168","MEAN_MOTION":13.11417697,"ECCENTRICITY":0.0001107,"INCLINATION":87.893,"RA_OF_ASC_NODE":31.3469,"ARG_OF_PERICENTER":88.7509,"MEAN_ANOMALY":271.3745,"EPHEMERIS_TYPE":0,"CLASSIFICATION_TYPE":"U","NORAD_CAT_ID":45436,"ELEMENT_SET_NO":999,"REV_AT_EPOCH":29589,"BSTAR":-0.0010015,"MEAN_MOTION_DOT":-3.42e-06,"MEAN_MOTION_DDOT":0.0},{"OBJECT_NAME":"ONEWEB-0092","OBJECT_ID":"2020-020P","EPOCH":"2026-04-26T12:26:28.165920","MEAN_MOTION":13.1139776,"ECCENTRICITY":0.0001705,"INCLINATION":87.893,"RA_OF_ASC_NODE":31.3376,"ARG_OF_PERICENTER":94.9684,"MEAN_ANOMALY":265.1639,"EPHEMERIS_TYPE":0,"CLASSIFICATION_TYPE":"U","NORAD_CAT_ID":45437,"ELEMENT_SET_NO":999,"REV_AT_EPOCH":29601,"BSTAR":0.011813,"MEAN_MOTION_DOT":4.2e-05,"MEAN_MOTION_DDOT":0.0},{"OBJECT_NAME":"ONEWEB-0085","OBJECT_ID":"2020-020Q","EPOCH":"2026-04-26T11:29:03.990624","MEAN_MOTION":13.11416837,"ECCENTRICITY":0.0001815,"INCLINATION":87.8924,"RA_OF_ASC_NODE":31.3478,"ARG_OF_PERICENTER":79.3835,"MEAN_ANOMALY":280.7497,"EPHEMERIS_TYPE":0,"CLASSIFICATION_TYPE":"U","NORAD_CAT_ID":45438,"ELEMENT_SET_NO":999,"REV_AT_EPOCH":29589,"BSTAR":-0.0014627000000000002,"MEAN_MOTION_DOT":-5.06e-06,"MEAN_MOTION_DDOT":0.0},{"OBJECT_NAME":"ONEWEB-0096","OBJECT_ID":"2020-020R","EPOCH":"2026-04-26T07:51:45.973152","MEAN_MOTION":13.11418287,"ECCENTRICITY":0.000189,"INCLINATION":87.8933,"RA_OF_ASC_NODE":31.3687,"ARG_OF_PERICENTER":81.0029,"MEAN_ANOMALY":279.1313,"EPHEMERIS_TYPE":0,"CLASSIFICATION_TYPE":"U","NORAD_CAT_ID":45439,"ELEMENT_SET_NO":999,"REV_AT_EPOCH":29586,"BSTAR":-0.0013414000000000002,"MEAN_MOTION_DOT":-4.63e-06,"MEAN_MOTION_DDOT":0.0},{"OBJECT_NAME":"ONEWEB-0037","OBJECT_ID":"2020-020S","EPOCH":"2026-04-26T07:17:58.613568","MEAN_MOTION":13.11907539,"ECCENTRICITY":0.0001755,"INCLINATION":87.8942,"RA_OF_ASC_NODE":31.3512,"ARG_OF_PERICENTER":80.3721,"MEAN_ANOMALY":279.7605,"EPHEMERIS_TYPE":0,"CLASSIFICATION_TYPE":"U","NORAD_CAT_ID":45440,"ELEMENT_SET_NO":999,"REV_AT_EPOCH":29589,"BSTAR":0.00055362,"MEAN_MOTION_DOT":2.1e-06,"MEAN_MOTION_DDOT":0.0},{"OBJECT_NAME":"ONEWEB-0042","OBJECT_ID":"2020-020T","EPOCH":"2026-04-26T11:16:39.599328","MEAN_MOTION":13.11415945,"ECCENTRICITY":0.0001878,"INCLINATION":87.8931,"RA_OF_ASC_NODE":31.3376,"ARG_OF_PERICENTER":81.4141,"MEAN_ANOMALY":278.72,"EPHEMERIS_TYPE":0,"CLASSIFICATION_TYPE":"U","NORAD_CAT_ID":45441,"ELEMENT_SET_NO":999,"REV_AT_EPOCH":29588,"BSTAR":-0.00080749,"MEAN_MOTION_DOT":-2.73e-06,"MEAN_MOTION_DDOT":0.0},{"OBJECT_NAME":"ONEWEB-0098","OBJECT_ID":"2020-020U","EPOCH":"2026-04-26T11:10:44.855616","MEAN_MOTION":13.11414209,"ECCENTRICITY":0.0001842,"INCLINATION":87.8928,"RA_OF_ASC_NODE":31.349,"ARG_OF_PERICENTER":76.4801,"MEAN_ANOMALY":283.6532,"EPHEMERIS_TYPE":0,"CLASSIFICATION_TYPE":"U","NORAD_CAT_ID":45442,"ELEMENT_SET_NO":999,"REV_AT_EPOCH":29586,"BSTAR":-0.00035411,"MEAN_MOTION_DOT":-1.13e-06,"MEAN_MOTION_DDOT":0.0},{"OBJECT_NAME":"ONEWEB-0055","OBJECT_ID":"2020-020V","EPOCH":"2026-04-26T12:35:32.324352","MEAN_MOTION":13.1171976,"ECCENTRICITY":0.0002238,"INCLINATION":87.8929,"RA_OF_ASC_NODE":31.337,"ARG_OF_PERICENTER":76.1258,"MEAN_ANOMALY":284.0119,"EPHEMERIS_TYPE":0,"CLASSIFICATION_TYPE":"U","NORAD_CAT_ID":45443,"ELEMENT_SET_NO":999,"REV_AT_EPOCH":29584,"BSTAR":0.09001700000000001,"MEAN_MOTION_DOT":0.00032169,"MEAN_MOTION_DDOT":0.0},{"OBJECT_NAME":"ONEWEB-0093","OBJECT_ID":"2020-020W","EPOCH":"2026-04-26T12:01:01.006176","MEAN_MOTION":13.11419758,"ECCENTRICITY":0.0002088,"INCLINATION":87.8935,"RA_OF_ASC_NODE":31.3323,"ARG_OF_PERICENTER":88.8393,"MEAN_ANOMALY":271.2974,"EPHEMERIS_TYPE":0,"CLASSIFICATION_TYPE":"U","NORAD_CAT_ID":45444,"ELEMENT_SET_NO":999,"REV_AT_EPOCH":29590,"BSTAR":-6.183100000000001e-05,"MEAN_MOTION_DOT":-9e-08,"MEAN_MOTION_DDOT":0.0},{"OBJECT_NAME":"ONEWEB-0029","OBJECT_ID":"2020-020X","EPOCH":"2026-04-26T12:24:01.355904","MEAN_MOTION":13.11417642,"ECCENTRICITY":0.0001979,"INCLINATION":87.8922,"RA_OF_ASC_NODE":31.3386,"ARG_OF_PERICENTER":80.309,"MEAN_ANOMALY":279.8261,"EPHEMERIS_TYPE":0,"CLASSIFICATION_TYPE":"U","NORAD_CAT_ID":45445,"ELEMENT_SET_NO":999,"REV_AT_EPOCH":29588,"BSTAR":0.0014698,"MEAN_MOTION_DOT":5.34e-06,"MEAN_MOTION_DDOT":0.0},{"OBJECT_NAME":"ONEWEB-0068","OBJECT_ID":"2020-020Y","EPOCH":"2026-04-26T12:00:37.426752","MEAN_MOTION":13.11419532,"ECCENTRICITY":0.0002024,"INCLINATION":87.8936,"RA_OF_ASC_NODE":31.3356,"ARG_OF_PERICENTER":81.6244,"MEAN_ANOMALY":278.5113,"EPHEMERIS_TYPE":0,"CLASSIFICATION_TYPE":"U","NORAD_CAT_ID":45446,"ELEMENT_SET_NO":999,"REV_AT_EPOCH":29582,"BSTAR":1.49e-07,"MEAN_MOTION_DOT":1.3e-07,"MEAN_MOTION_DDOT":0.0},{"OBJECT_NAME":"ONEWEB-0046","OBJECT_ID":"2020-020Z","EPOCH":"2026-04-26T11:48:36.099072","MEAN_MOTION":13.11419047,"ECCENTRICITY":0.0001837,"INCLINATION":87.8937,"RA_OF_ASC_NODE":31.3444,"ARG_OF_PERICENTER":86.8916,"MEAN_ANOMALY":273.2422,"EPHEMERIS_TYPE":0,"CLASSIFICATION_TYPE":"U","NORAD_CAT_ID":45447,"ELEMENT_SET_NO":999,"REV_AT_EPOCH":29583,"BSTAR":-0.0008979200000000001,"MEAN_MOTION_DOT":-3.06e-06,"MEAN_MOTION_DDOT":0.0},{"OBJECT_NAME":"ONEWEB-0063","OBJECT_ID":"2020-020AA","EPOCH":"2026-04-26T12:30:07.646112","MEAN_MOTION":13.11416542,"ECCENTRICITY":0.0001675,"INCLINATION":87.8932,"RA_OF_ASC_NODE":31.3363,"ARG_OF_PERICENTER":84.9625,"MEAN_ANOMALY":275.1694,"EPHEMERIS_TYPE":0,"CLASSIFICATION_TYPE":"U","NORAD_CAT_ID":45448,"ELEMENT_SET_NO":999,"REV_AT_EPOCH":29592,"BSTAR":0.0015455,"MEAN_MOTION_DOT":5.6e-06,"MEAN_MOTION_DDOT":0.0},{"OBJECT_NAME":"ONEWEB-0019","OBJECT_ID":"2020-020AB","EPOCH":"2026-04-26T11:36:11.395872","MEAN_MOTION":13.11417924,"ECCENTRICITY":0.0001842,"INCLINATION":87.8927,"RA_OF_ASC_NODE":31.3332,"ARG_OF_PERICENTER":73.4935,"MEAN_ANOMALY":286.6395,"EPHEMERIS_TYPE":0,"CLASSIFICATION_TYPE":"U","NORAD_CAT_ID":45449,"ELEMENT_SET_NO":999,"REV_AT_EPOCH":29576,"BSTAR":-0.0014230000000000002,"MEAN_MOTION_DOT":-4.92e-06,"MEAN_MOTION_DDOT":0.0}]